{"type": "FeatureCollection", "features": [ {"type": "Feature", "properties": {"norad_id": 38068, "name": "COSMOS 2251 DEB", "group": "cosmos-2251-debris", "lat": 48.200543742853384, "lon": -21.412722279321226, "alt_km": 749.9199978479255, "timestamp": "2025-12-06T09:34:17.312200+00:00", "meta": {"OBJECT_NAME": "COSMOS 2251 DEB", "OBJECT_ID": "1993-036BSA", "EPOCH": "2025-11-26T00:12:22.263264", "MEAN_MOTION": 14.35960004, "ECCENTRICITY": 0.00240903, "INCLINATION": 74.0219, "RA_OF_ASC_NODE": 338.9788, "ARG_OF_PERICENTER": 72.1007, "MEAN_ANOMALY": 288.2769, "EPHEMERIS_TYPE": 0, "CLASSIFICATION_TYPE": "U", "NORAD_CAT_ID": 38068, "ELEMENT_SET_NO": 999, "REV_AT_EPOCH": 66406, "BSTAR": 0.00028750999, "MEAN_MOTION_DOT": 8.11e-06, "MEAN_MOTION_DDOT": 0}, "tle": {"line1": "1 38068U 93036BSA 25330.00859101  .00000811  00000+0  28751-3 0  9998", "line2": "2 38068  74.0219 338.9788 0024090  72.1007 288.2769 14.35960004664064"}}, "geometry": {"type": "Point", "coordinates": [-21.412722279321226, 48.200543742853384]}}, {"type": "Feature", "properties": {"norad_id": 38197, "name": "COSMOS 2251 DEB", "group": "cosmos-2251-debris", "lat": -70.26484447457169, "lon": -117.08082445972254, "alt_km": 568.4663979382058, "timestamp": "2025-12-06T09:34:17.312209+00:00", "meta": {"OBJECT_NAME": "COSMOS 2251 DEB", "OBJECT_ID": "1993-036BSM", "EPOCH": "2025-12-03T10:19:00.710112", "MEAN_MOTION": 14.73077907, "ECCENTRICITY": 0.01286379, "INCLINATION": 73.9396, "RA_OF_ASC_NODE": 15.3185, "ARG_OF_PERICENTER": 255.0006, "MEAN_ANOMALY": 103.6899, "EPHEMERIS_TYPE": 0, "CLASSIFICATION_TYPE": "U", "NORAD_CAT_ID": 38197, "ELEMENT_SET_NO": 999, "REV_AT_EPOCH": 85618, "BSTAR": 0.0059536549, "MEAN_MOTION_DOT": 0.00043936, "MEAN_MOTION_DDOT": 0}, "tle": {"line1": "1 38197U 93036BSM 25337.42986933  .00043936  00000+0  59537-2 0  9998", "line2": "2 38197  73.9396  15.3185 0128637 255.0006 103.6899 14.73077907856184"}}, "geometry": {"type": "Point", "coordinates": [-117.08082445972254, -70.26484447457169]}}, {"type": "Feature", "properties": {"norad_id": 38199, "name": "COSMOS 2251 DEB", "group": "cosmos-2251-debris", "lat": 13.700536409294083, "lon": 76.62917303054277, "alt_km": 753.2643810552127, "timestamp": "2025-12-06T09:34:17.312219+00:00", "meta": {"OBJECT_NAME": "COSMOS 2251 DEB", "OBJECT_ID": "1993-036BSP", "EPOCH": "2025-12-05T22:57:07.005312", "MEAN_MOTION": 13.64781865, "ECCENTRICITY": 0.03693495, "INCLINATION": 73.9556, "RA_OF_ASC_NODE": 73.3332, "ARG_OF_PERICENTER": 1.1874, "MEAN_ANOMALY": 359.0029, "EPHEMERIS_TYPE": 0, "CLASSIFICATION_TYPE": "U", "NORAD_CAT_ID": 38199, "ELEMENT_SET_NO": 999, "REV_AT_EPOCH": 60929, "BSTAR": 0.00068025629, "MEAN_MOTION_DOT": 8.5e-06, "MEAN_MOTION_DDOT": 0}, "tle": {"line1": "1 38199U 93036BSP 25339.95633108  .00000850  00000+0  68026-3 0  9995", "line2": "2 38199  73.9556  73.3332 0369349   1.1874 359.0029 13.64781865609296"}}, "geometry": {"type": "Point", "coordinates": [76.62917303054277, 13.700536409294083]}}, {"type": "Feature", "properties": {"norad_id": 38208, "name": "COSMOS 2251 DEB", "group": "cosmos-2251-debris", "lat": -18.024816310621212, "lon": 86.14267244680794, "alt_km": 625.2808941518733, "timestamp": "2025-12-06T09:34:17.312230+00:00", "meta": {"OBJECT_NAME": "COSMOS 2251 DEB", "OBJECT_ID": "1993-036BSY", "EPOCH": "2025-12-05T14:19:12.971424", "MEAN_MOTION": 14.83431595, "ECCENTRICITY": 0.00033607, "INCLINATION": 74.0074, "RA_OF_ASC_NODE": 93.0882, "ARG_OF_PERICENTER": 176.5145, "MEAN_ANOMALY": 202.8392, "EPHEMERIS_TYPE": 0, "CLASSIFICATION_TYPE": "U", "NORAD_CAT_ID": 38208, "ELEMENT_SET_NO": 999, "REV_AT_EPOCH": 71053, "BSTAR": 0.0048604025, "MEAN_MOTION_DOT": 0.00040129, "MEAN_MOTION_DDOT": 0}, "tle": {"line1": "1 38208U 93036BSY 25339.59667791  .00040129  00000+0  48604-2 0  9993", "line2": "2 38208  74.0074  93.0882 0003360 176.5145 202.8392 14.83431595710531"}}, "geometry": {"type": "Point", "coordinates": [86.14267244680794, -18.024816310621212]}}, {"type": "Feature", "properties": {"norad_id": 38212, "name": "COSMOS 2251 DEB", "group": "cosmos-2251-debris", "lat": 63.4065570062252, "lon": 123.86679458731598, "alt_km": 628.8441393955054, "timestamp": "2025-12-06T09:34:17.312240+00:00", "meta": {"OBJECT_NAME": "COSMOS 2251 DEB", "OBJECT_ID": "1993-036BTC", "EPOCH": "2025-12-05T13:45:38.672064", "MEAN_MOTION": 14.77606088, "ECCENTRICITY": 0.00930906, "INCLINATION": 74.0524, "RA_OF_ASC_NODE": 90.6514, "ARG_OF_PERICENTER": 159.5607, "MEAN_ANOMALY": 200.9334, "EPHEMERIS_TYPE": 0, "CLASSIFICATION_TYPE": "U", "NORAD_CAT_ID": 38212, "ELEMENT_SET_NO": 999, "REV_AT_EPOCH": 81204, "BSTAR": 0.0011266459, "MEAN_MOTION_DOT": 8.633e-05, "MEAN_MOTION_DDOT": 0}, "tle": {"line1": "1 38212U 93036BTC 25339.57336426  .00008633  00000+0  11266-2 0  9992", "line2": "2 38212  74.0524  90.6514 0093090 159.5607 200.9334 14.77606088812042"}}, "geometry": {"type": "Point", "coordinates": [123.86679458731598, 63.4065570062252]}}, {"type": "Feature", "properties": {"norad_id": 38220, "name": "COSMOS 2251 DEB", "group": "cosmos-2251-debris", "lat": -53.891534879793554, "lon": -75.80868891178227, "alt_km": 599.7385165770356, "timestamp": "2025-12-06T09:34:17.312250+00:00", "meta": {"OBJECT_NAME": "COSMOS 2251 DEB", "OBJECT_ID": "1993-036BTL", "EPOCH": "2025-12-05T13:12:17.652384", "MEAN_MOTION": 14.92220687, "ECCENTRICITY": 0.00036457, "INCLINATION": 74.0154, "RA_OF_ASC_NODE": 82.7571, "ARG_OF_PERICENTER": 79.6954, "MEAN_ANOMALY": 280.464, "EPHEMERIS_TYPE": 0, "CLASSIFICATION_TYPE": "U", "NORAD_CAT_ID": 38220, "ELEMENT_SET_NO": 999, "REV_AT_EPOCH": 71263, "BSTAR": 0.0059144811, "MEAN_MOTION_DOT": 0.00060808, "MEAN_MOTION_DDOT": 0}, "tle": {"line1": "1 38220U 93036BTL 25339.55020431  .00060808  00000+0  59145-2 0  9995", "line2": "2 38220  74.0154  82.7571 0003645  79.6954 280.4640 14.92220687712630"}}, "geometry": {"type": "Point", "coordinates": [-75.80868891178227, -53.891534879793554]}}, {"type": "Feature", "properties": {"norad_id": 38479, "name": "COSMOS 2251 DEB", "group": "cosmos-2251-debris", "lat": 13.767135837321748, "lon": 11.956424089520425, "alt_km": 811.5780291678193, "timestamp": "2025-12-06T09:34:17.312260+00:00", "meta": {"OBJECT_NAME": "COSMOS 2251 DEB", "OBJECT_ID": "1993-036BTP", "EPOCH": "2025-12-05T21:11:51.403776", "MEAN_MOTION": 14.38177774, "ECCENTRICITY": 0.00844175, "INCLINATION": 74.0064, "RA_OF_ASC_NODE": 196.9374, "ARG_OF_PERICENTER": 307.2811, "MEAN_ANOMALY": 70.5855, "EPHEMERIS_TYPE": 0, "CLASSIFICATION_TYPE": "U", "NORAD_CAT_ID": 38479, "ELEMENT_SET_NO": 999, "REV_AT_EPOCH": 64589, "BSTAR": 0.0027500073, "MEAN_MOTION_DOT": 8.683e-05, "MEAN_MOTION_DDOT": 0}, "tle": {"line1": "1 38479U 93036BTP 25339.88323384  .00008683  00000+0  27500-2 0  9993", "line2": "2 38479  74.0064 196.9374 0084417 307.2811  70.5855 14.38177774645890"}}, "geometry": {"type": "Point", "coordinates": [11.956424089520425, 13.767135837321748]}}, {"type": "Feature", "properties": {"norad_id": 38481, "name": "COSMOS 2251 DEB", "group": "cosmos-2251-debris", "lat": -17.591686324314878, "lon": 13.277629611227335, "alt_km": 757.8112491370766, "timestamp": "2025-12-06T09:34:17.312270+00:00", "meta": {"OBJECT_NAME": "COSMOS 2251 DEB", "OBJECT_ID": "1993-036BTR", "EPOCH": "2025-11-30T21:06:34.190496", "MEAN_MOTION": 13.94733975, "ECCENTRICITY": 0.02337783, "INCLINATION": 73.9329, "RA_OF_ASC_NODE": 28.0528, "ARG_OF_PERICENTER": 330.587, "MEAN_ANOMALY": 28.2266, "EPHEMERIS_TYPE": 0, "CLASSIFICATION_TYPE": "U", "NORAD_CAT_ID": 38481, "ELEMENT_SET_NO": 999, "REV_AT_EPOCH": 58895, "BSTAR": 0.0013592661, "MEAN_MOTION_DOT": 2.261e-05, "MEAN_MOTION_DDOT": 0}, "tle": {"line1": "1 38481U 93036BTR 25334.87956239  .00002261  00000+0  13593-2 0  9994", "line2": "2 38481  73.9329  28.0528 0233778 330.5870  28.2266 13.94733975588952"}}, "geometry": {"type": "Point", "coordinates": [13.277629611227335, -17.591686324314878]}}, {"type": "Feature", "properties": {"norad_id": 38483, "name": "COSMOS 2251 DEB", "group": "cosmos-2251-debris", "lat": 26.553453492882667, "lon": 31.197331539524704, "alt_km": 811.2960099247539, "timestamp": "2025-12-06T09:34:17.312280+00:00", "meta": {"OBJECT_NAME": "COSMOS 2251 DEB", "OBJECT_ID": "1993-036BTT", "EPOCH": "2025-12-05T09:54:51.547104", "MEAN_MOTION": 14.28743518, "ECCENTRICITY": 0.01115299, "INCLINATION": 74.2614, "RA_OF_ASC_NODE": 24.8593, "ARG_OF_PERICENTER": 132.5252, "MEAN_ANOMALY": 228.5384, "EPHEMERIS_TYPE": 0, "CLASSIFICATION_TYPE": "U", "NORAD_CAT_ID": 38483, "ELEMENT_SET_NO": 999, "REV_AT_EPOCH": 63373, "BSTAR": 0.0016991918, "MEAN_MOTION_DOT": 4.552e-05, "MEAN_MOTION_DDOT": 0}, "tle": {"line1": "1 38483U 93036BTT 25339.41309661  .00004552  00000+0  16992-2 0  9993", "line2": "2 38483  74.2614  24.8593 0111529 132.5252 228.5384 14.28743518633739"}}, "geometry": {"type": "Point", "coordinates": [31.197331539524704, 26.553453492882667]}}, {"type": "Feature", "properties": {"norad_id": 38486, "name": "COSMOS 2251 DEB", "group": "cosmos-2251-debris", "lat": 70.551117526862, "lon": -88.05498738456821, "alt_km": 639.4627383460011, "timestamp": "2025-12-06T09:34:17.312290+00:00", "meta": {"OBJECT_NAME": "COSMOS 2251 DEB", "OBJECT_ID": "1993-036BTW", "EPOCH": "2025-12-04T10:45:43.773120", "MEAN_MOTION": 14.72848629, "ECCENTRICITY": 0.0029962, "INCLINATION": 73.9408, "RA_OF_ASC_NODE": 221.1021, "ARG_OF_PERICENTER": 6.1339, "MEAN_ANOMALY": 174.6266, "EPHEMERIS_TYPE": 0, "CLASSIFICATION_TYPE": "U", "NORAD_CAT_ID": 38486, "ELEMENT_SET_NO": 999, "REV_AT_EPOCH": 75312, "BSTAR": 0.0072104, "MEAN_MOTION_DOT": 0.00046774, "MEAN_MOTION_DDOT": 0}, "tle": {"line1": "1 38486U 93036BTW 25338.44842330  .00046774  00000+0  72104-2 0  9992", "line2": "2 38486  73.9408 221.1021 0029962   6.1339 174.6266 14.72848629753122"}}, "geometry": {"type": "Point", "coordinates": [-88.05498738456821, 70.551117526862]}}]}